NORAD_CAT_ID,OBJECT_NAME,OBJECT_TYPE,EPOCH,MEAN_MOTION,ECCENTRICITY,INCLINATION,RA_OF_ASC_NODE,ARG_OF_PERICENTER,MEAN_ANOMALY,BSTAR,MEAN_MOTION_DOT,MEAN_MOTION_DDOT,TLE_LINE0,TLE_LINE1,TLE_LINE2,SEMIMAJOR_AXIS,PERIOD,APOGEE,PERIGEE,DECAYED
52490.0,STARLINK-3914,PAYLOAD,2022-05-31 22:00:00,15.73131318,0.000198,53.2161,140.0192,33.8227,212.9196,0.00059597,0.00083612,0.0,0 STARLINK-3914,1 52490U 22049AR  22151.91667824  .00083612  00000-0  59597-3 0  9999,2 52490  53.2161 140.0192 0001980  33.8227 212.9196 15.73131318  1307,6728.090999999999,91.537,351.288,348.624,0.0
52490.0,STARLINK-3914,PAYLOAD,2022-06-01 06:00:00,15.73180255,0.0002192,53.2163,138.372,31.8864,303.7324,0.00020525,0.00028259,0.0,0 STARLINK-3914,1 52490U 22049AR  22152.25001157  .00028259  00000-0  20525-3 0  9993,2 52490  53.2163 138.3720 0002192  31.8864 303.7324 15.73180255  4249,6727.951,91.534,351.291,348.342,0.0
52490.0,STARLINK-3914,PAYLOAD,2022-06-01 20:00:01,15.73204876,0.0002012,53.2167,135.4833,34.1701,7.0839,0.00063324,0.00089222,0.0,0 STARLINK-3914,1 52490U 22049AR  22152.83334491  .00089222  00000-0  63324-3 0  9998,2 52490  53.2167 135.4833 0002012  34.1701   7.0839 15.73204876  1308,6727.880999999999,91.533,351.1,348.39300000000014,0.0
52490.0,STARLINK-3914,PAYLOAD,2022-06-02 21:44:42,15.73229844,0.0003201,53.217,130.1755,36.6254,323.4984,7.5293e-05,9.972e-05,0.0,0 STARLINK-3914,1 52490U 22049AR  22153.90604567  .00009972  00000-0  75293-4 0  9994,2 52490  53.2170 130.1755 0003201  36.6254 323.4984 15.73229844  4343,6727.81,91.531,351.829,347.522,0.0
52490.0,STARLINK-3914,PAYLOAD,2022-06-03 05:22:06,15.73225317,0.0002142,53.2171,128.6034,27.1807,332.9324,3.171e-05,3.836e-05,0.0,0 STARLINK-3914,1 52490U 22049AR  22154.22368169  .00003836  00000-0  31710-4 0  9994,2 52490  53.2171 128.6034 0002142  27.1807 332.9324 15.73225317  4555,6727.823,91.532,351.129,348.247,0.0
52490.0,STARLINK-3914,PAYLOAD,2022-06-03 09:56:32,15.73228911,0.0002136,53.2172,127.6602,28.0408,332.0727,3.1105e-05,3.751e-05,0.0,0 STARLINK-3914,1 52490U 22049AR  22154.41426148  .00003751  00000-0  31105-4 0  9991,2 52490  53.2172 127.6602 0002136  28.0408 332.0727 15.73228911  4423,6727.813,91.531,351.115,348.241,0.0
52490.0,STARLINK-3914,PAYLOAD,2022-06-04 08:48:44,15.73199777,0.0002089,53.2176,122.9452,27.8294,332.2837,-5.7887e-05,-8.737e-05,0.0,0 STARLINK-3914,1 52490U 22049AR  22155.36717642 -.00008737  00000-0 -57887-4 0  9994,2 52490  53.2176 122.9452 0002089  27.8294 332.2837 15.73199777  4730,6727.896,91.533,351.166,348.355,0.0
52490.0,STARLINK-3914,PAYLOAD,2022-06-05 22:00:00,15.73176891,0.0001914,53.2179,115.2778,36.2723,104.6172,0.00028632,0.00039714,0.0,0 STARLINK-3914,1 52490U 22049AR  22156.91667824  .00039714  00000-0  28632-3 0  9994,2 52490  53.2179 115.2778 0001914  36.2723 104.6172 15.73176891  4977,6727.9609999999975,91.535,351.11400000000015,348.538,0.0
52490.0,STARLINK-3914,PAYLOAD,2022-06-06 14:00:01,15.73259212,0.0001853,53.2176,111.9797,30.0838,288.6703,-0.0006866,-0.00096136,0.0,0 STARLINK-3914,1 52490U 22049AR  22157.58334491 -.00096136  00000-0 -68660-3 0  9997,2 52490  53.2176 111.9797 0001853  30.0838 288.6703 15.73259212  1305,6727.726,91.53,350.838,348.345,0.0
52490.0,STARLINK-3914,PAYLOAD,2022-06-06 22:00:00,15.73203686,0.0001728,53.2177,110.3299,31.2656,16.4469,0.00023877,0.00033027,0.0,0 STARLINK-3914,1 52490U 22049AR  22157.91667824  .00033027  00000-0  23877-3 0  9992,2 52490  53.2177 110.3299 0001728  31.2656  16.4469 15.73203686  5133,6727.885,91.533,350.912,348.587,0.0
52490.0,STARLINK-3914,PAYLOAD,2022-06-07 14:00:01,15.73213439,0.0001851,53.2176,107.0311,33.1366,192.4946,5.5846000000000016e-06,1.63e-06,0.0,0 STARLINK-3914,1 52490U 22049AR  22158.58334491  .00000163  00000-0  55846-5 0  9995,2 52490  53.2176 107.0311 0001851  33.1366 192.4946 15.73213439  5239,6727.857,91.532,350.967,348.477,0.0
52490.0,STARLINK-3914,PAYLOAD,2022-06-07 22:00:00,15.73219864,0.0001746,53.2179,105.3812,34.6584,279.9188,-0.00024639,-0.00035087,0.0,0 STARLINK-3914,1 52490U 22049AR  22158.91667824 -.00035087  00000-0 -24639-3 0  9990,2 52490  53.2179 105.3812 0001746  34.6584 279.9188 15.73219864  1301,6727.839,91.532,350.87800000000016,348.529,0.0
52490.0,STARLINK-3914,PAYLOAD,2022-06-08 14:00:01,15.73219477,0.0001705,53.2176,102.0823,26.8484,105.634,-0.00049274,-0.00069267,0.0,0 STARLINK-3914,1 52490U 22049AR  22159.58334491 -.00069267  00000-0 -49274-3 0  9994,2 52490  53.2176 102.0823 0001705  26.8484 105.6340 15.73219477  1306,6727.84,91.532,350.852,348.55800000000005,0.0
52490.0,STARLINK-3914,PAYLOAD,2022-06-08 22:00:01,15.7315155,0.0001720999999999,53.2177,100.433,33.9153,187.5315,0.00019501,0.00026779,0.0,0 STARLINK-3914,1 52490U 22049AR  22159.91668981  .00026779  00000-0  19501-3 0  9994,2 52490  53.2177 100.4330 0001721  33.9153 187.5315 15.73151550  5449,6728.033,91.536,351.056,348.74,0.0
52490.0,STARLINK-3914,PAYLOAD,2022-06-09 14:00:01,15.73148259,0.0001827,53.2176,97.134,38.8851,0.2808,4.7212e-05,5.996e-05,0.0,0 STARLINK-3914,1 52490U 22049AR  22160.58334491  .00005996  00000-0  47212-4 0  9994,2 52490  53.2176  97.1340 0001827  38.8851   0.2808 15.73148259  1308,6728.043000000002,91.536,351.13699999999994,348.67800000000005,0.0
52490.0,STARLINK-3914,PAYLOAD,2022-06-09 22:00:00,15.73166773,0.0001947,53.218,95.4847,43.177,84.8398,0.00010804,0.00014547,0.0,0 STARLINK-3914,1 52490U 22049AR  22160.91667824  .00014547  00000-0  10804-3 0  9998,2 52490  53.2180  95.4847 0001947  43.1770  84.8398 15.73166773  1301,6727.99,91.535,351.165,348.545,0.0
52490.0,STARLINK-3914,PAYLOAD,2022-06-10 00:00:00,15.73172535,0.0002011,53.2179,95.0731,41.3384,198.8998,4.7932e-05,6.103e-05,0.0,0 STARLINK-3914,1 52490U 22049AR  22161.00001157  .00006103  00000-0  47932-4 0  9992,2 52490  53.2179  95.0731 0002011  41.3384 198.8998 15.73172535  5614,6727.973000000001,91.535,351.191,348.485,0.0
52490.0,STARLINK-3914,PAYLOAD,2022-06-10 14:00:01,15.73206097,0.0001902,53.218,92.1853,41.5476,264.3108,0.00034781,0.00048489,0.0,0 STARLINK-3914,1 52490U 22049AR  22161.58334491  .00048489  00000-0  34781-3 0  9995,2 52490  53.2180  92.1853 0001902  41.5476 264.3108 15.73206097  5704,6727.878000000002,91.533,351.022,348.463,0.0
52490.0,STARLINK-3914,PAYLOAD,2022-06-10 22:00:00,15.73297314,0.0001786,53.2181,90.5362,39.9574,354.8636,-0.00071629,-0.00100379,0.0,0 STARLINK-3914,1 52490U 22049AR  22161.91667824 -.00100379  00000-0 -71629-3 0  9992,2 52490  53.2181  90.5362 0001786  39.9574 354.8636 15.73297314  1307,6727.618,91.528,350.684,348.281,0.0
52490.0,STARLINK-3914,PAYLOAD,2022-06-11 06:00:00,15.73215694,0.0001838,53.2178,88.8884,31.0571,92.7537,0.00011014,0.00014875,0.0,0 STARLINK-3914,1 52490U 22049AR  22162.25001157  .00014875  00000-0  11014-3 0  9996,2 52490  53.2178  88.8884 0001838  31.0571  92.7537 15.73215694  5819,6727.85,91.532,350.952,348.47900000000016,0.0
52490.0,STARLINK-3914,PAYLOAD,2022-06-11 22:00:00,15.73243306,0.0001668,53.2185,85.5878,35.8331,265.8511,-0.0006347,-0.00088928,0.0,0 STARLINK-3914,1 52490U 22049AR  22162.91667824 -.00088928  00000-0 -63470-3 0  9993,2 52490  53.2185  85.5878 0001668  35.8331 265.8511 15.73243306  5918,6727.772,91.531,350.759,348.515,0.0
52490.0,STARLINK-3914,PAYLOAD,2022-06-12 06:00:02,15.73161835,0.0001917,53.2184,83.9398,33.3448,357.3576,0.00061433,0.00086348,0.0,0 STARLINK-3914,1 52490U 22049AR  22163.25002315  .00086348  00000-0  61433-3 0  9998,2 52490  53.2184  83.9398 0001917  33.3448 357.3576 15.73161835  5975,6728.004,91.535,351.159,348.579,0.0
52490.0,STARLINK-3914,PAYLOAD,2022-06-12 14:00:01,15.73222352,0.0001607,53.2186,82.2886,34.9365,84.6252,-5.2636e-05,-8.008e-05,0.0,0 STARLINK-3914,1 52490U 22049AR  22163.58334491 -.00008008  00000-0 -52636-4 0  9992,2 52490  53.2186  82.2886 0001607  34.9365  84.6252 15.73222352  1308,6727.831,91.532,350.778,348.615,0.0
52490.0,STARLINK-3914,PAYLOAD,2022-06-12 22:00:00,15.73209027,0.0001613,53.2187,80.6401,33.3233,175.2038,6.6475e-05,8.722e-05,0.0,0 STARLINK-3914,1 52490U 22049AR  22163.91667824  .00008722  00000-0  66475-4 0  9995,2 52490  53.2187  80.6401 0001613  33.3233 175.2038 15.73209027  6070,6727.869000000002,91.533,350.82,348.649,0.0
52490.0,STARLINK-3914,PAYLOAD,2022-06-13 14:00:01,15.73208191,0.0001628,53.2186,77.3404,39.9118,346.5186,0.00029861,0.0004151,0.0,0 STARLINK-3914,1 52490U 22049AR  22164.58334491  .00041510  00000-0  29861-3 0  9999,2 52490  53.2186  77.3404 0001628  39.9118 346.5186 15.73208191  1304,6727.871999999999,91.533,350.832,348.642,0.0
52490.0,STARLINK-3914,PAYLOAD,2022-06-13 22:00:00,15.73248927,0.0001767,53.2189,75.692,42.1453,73.2405,-0.0005748,-0.00080693,0.0,0 STARLINK-3914,1 52490U 22049AR  22164.91667824 -.00080693  00000-0 -57480-3 0  9990,2 52490  53.2189  75.6920 0001767  42.1453  73.2405 15.73248927  1302,6727.755999999999,91.53,350.809,348.432,0.0
52490.0,STARLINK-3914,PAYLOAD,2022-06-14 06:00:00,15.73180858,0.0001859,53.2186,74.0437,37.2892,167.0487,6.8861e-05,9.046e-05,0.0,0 STARLINK-3914,1 52490U 22049AR  22165.25001157  .00009046  00000-0  68861-4 0  9996,2 52490  53.2186  74.0437 0001859  37.2892 167.0487 15.73180858  6281,6727.95,91.534,351.065,348.564,0.0
52490.0,STARLINK-3914,PAYLOAD,2022-06-14 14:00:01,15.73118681,0.0001732,53.2188,72.3925,43.5708,249.6833,0.00057513,0.00080592,0.0,0 STARLINK-3914,1 52490U 22049AR  22165.58334491  .00080592  00000-0  57513-3 0  9998,2 52490  53.2188  72.3925 0001732  43.5708 249.6833 15.73118681  6335,6728.127,91.538,351.157,348.827,0.0
52490.0,STARLINK-3914,PAYLOAD,2022-06-14 22:00:00,15.73196611,0.0001708,53.2188,70.7445,41.2495,340.8775,-0.00048328,-0.00067894,0.0,0 STARLINK-3914,1 52490U 22049AR  22165.91667824 -.00067894  00000-0 -48328-3 0  9990,2 52490  53.2188  70.7445 0001708  41.2495 340.8775 15.73196611  1305,6727.905,91.533,350.9190000000001,348.621,0.0
